CTC1_L_00002001-01
1 66786U 23706VF  26037.47800926  .00000000  00000+0  00000-0 0  9994
2 66786  50.0000   0.0000 0000000   0.0000   0.0000 15.90815258    15
CTC1_L_00002001-02
1 66787U 25251XW  26037.47800926  .00000000  00000+0  00000-0 0  9992
2 66787  50.0000   0.0000 0000000   0.0000  90.0000 15.90815258    15
CTC1_L_00002001-03
1 66788U 24812XS  26037.47800926  .00000000  00000+0  00000-0 0  9995
2 66788  50.0000   0.0000 0000000   0.0000 180.0000 15.90815258    16
CTC1_L_00002001-04
1 66789U 23774IH  26037.47800926  .00000000  00000+0  00000-0 0  9992
2 66789  50.0000   0.0000 0000000   0.0000 270.0000 15.90815258    17
CTC1_L_00002002-01
1 66790U 25209FG  26037.47800926  .00000000  00000+0  00000-0 0  9999
2 66790  50.0000  12.0000 0000000   0.0000  12.0000 15.90815258    16
CTC1_L_00002002-02
1 66791U 24862PH  26037.47800926  .00000000  00000+0  00000-0 0  9994
2 66791  50.0000  12.0000 0000000   0.0000 102.0000 15.90815258    17
CTC1_L_00002002-03
1 66792U 24643QL  26037.47800926  .00000000  00000+0  00000-0 0  9992
2 66792  50.0000  12.0000 0000000   0.0000 192.0000 15.90815258    17
CTC1_L_00002002-04
1 66793U 22785RK  26037.47800926  .00000000  00000+0  00000-0 0  9998
2 66793  50.0000  12.0000 0000000   0.0000 282.0000 15.90815258    18
CTC1_L_00002003-01
1 66794U 26830UV  26037.47800926  .00000000  00000+0  00000-0 0  9994
2 66794  50.0000  24.0000 0000000   0.0000  24.0000 15.90815258    16
CTC1_L_00002003-02
1 66795U 23699LA  26037.47800926  .00000000  00000+0  00000-0 0  9995
2 66795  50.0000  24.0000 0000000   0.0000 114.0000 15.90815258    17
CTC1_L_00002003-03
1 66796U 25399MI  26037.47800926  .00000000  00000+0  00000-0 0  9995
2 66796  50.0000  24.0000 0000000   0.0000 204.0000 15.90815258    18
CTC1_L_00002003-04
1 66797U 25354AK  26037.47800926  .00000000  00000+0  00000-0 0  9997
2 66797  50.0000  24.0000 0000000   0.0000 294.0000 15.90815258    18
CTC1_L_00002004-01
1 66798U 26044W   26037.47800926  .00000000  00000+0  00000-0 0  9995
2 66798  50.0000  36.0000 0000000   0.0000  36.0000 15.90815258    16
CTC1_L_00002004-02
1 66799U 25875DZ  26037.47800926  .00000000  00000+0  00000-0 0  9997
2 66799  50.0000  36.0000 0000000   0.0000 126.0000 15.90815258    17
CTC1_L_00002004-03
1 66800U 23706AF  26037.47800926  .00000000  00000+0  00000-0 0  9991
2 66800  50.0000  36.0000 0000000   0.0000 216.0000 15.90815258    10
CTC1_L_00002004-04
1 66801U 25278LH  26037.47800926  .00000000  00000+0  00000-0 0  9998
2 66801  50.0000  36.0000 0000000   0.0000 306.0000 15.90815258    11
CTC1_L_00002005-01
1 66802U 24224RM  26037.47800926  .00000000  00000+0  00000-0 0  9999
2 66802  50.0000  48.0000 0000000   0.0000  48.0000 15.90815258    18
CTC1_L_00002005-02
1 66803U 24080JJ  26037.47800926  .00000000  00000+0  00000-0 0  9990
2 66803  50.0000  48.0000 0000000   0.0000 138.0000 15.90815258    19
CTC1_L_00002005-03
1 66804U 23884YS  26037.47800926  .00000000  00000+0  00000-0 0  9992
2 66804  50.0000  48.0000 0000000   0.0000 228.0000 15.90815258    10
CTC1_L_00002005-04
1 66805U 24386MO  26037.47800926  .00000000  00000+0  00000-0 0  9991
2 66805  50.0000  48.0000 0000000   0.0000 318.0000 15.90815258    11
CTC1_L_00002006-01
1 66806U 26696W   26037.47800926  .00000000  00000+0  00000-0 0  9998
2 66806  50.0000  60.0000 0000000   0.0000  60.0000 15.90815258    10
CTC1_L_00002006-02
1 66807U 22800HD  26037.47800926  .00000000  00000+0  00000-0 0  9992
2 66807  50.0000  60.0000 0000000   0.0000 150.0000 15.90815258    11
CTC1_L_00002006-03
1 66808U 24118RU  26037.47800926  .00000000  00000+0  00000-0 0  9997
2 66808  50.0000  60.0000 0000000   0.0000 240.0000 15.90815258    12
CTC1_L_00002006-04
1 66809U 24198IZ  26037.47800926  .00000000  00000+0  00000-0 0  9996
2 66809  50.0000  60.0000 0000000   0.0000 330.0000 15.90815258    13
CTC1_L_00002007-01
1 66810U 22604FF  26037.47800926  .00000000  00000+0  00000-0 0  9998
2 66810  50.0000  72.0000 0000000   0.0000  72.0000 15.90815258    11
CTC1_L_00002007-02
1 66811U 22688LR  26037.47800926  .00000000  00000+0  00000-0 0  9991
2 66811  50.0000  72.0000 0000000   0.0000 162.0000 15.90815258    12
CTC1_L_00002007-03
1 66812U 22256DD  26037.47800926  .00000000  00000+0  00000-0 0  9993
2 66812  50.0000  72.0000 0000000   0.0000 252.0000 15.90815258    13
CTC1_L_00002007-04
1 66813U 26556IL  26037.47800926  .00000000  00000+0  00000-0 0  9991
2 66813  50.0000  72.0000 0000000   0.0000 342.0000 15.90815258    14
CTC1_L_00002008-01
1 66814U 22392WP  26037.47800926  .00000000  00000+0  00000-0 0  9996
2 66814  50.0000  84.0000 0000000   0.0000  84.0000 15.90815258    11
CTC1_L_00002008-02
1 66815U 25294OQ  26037.47800926  .00000000  00000+0  00000-0 0  9991
2 66815  50.0000  84.0000 0000000   0.0000 174.0000 15.90815258    12
CTC1_L_00002008-03
1 66816U 25471TR  26037.47800926  .00000000  00000+0  00000-0 0  9999
2 66816  50.0000  84.0000 0000000   0.0000 264.0000 15.90815258    13
CTC1_L_00002008-04
1 66817U 25987KY  26037.47800926  .00000000  00000+0  00000-0 0  9992
2 66817  50.0000  84.0000 0000000   0.0000 354.0000 15.90815258    14
CTC1_L_00002009-01
1 66818U 24731RF  26037.47800926  .00000000  00000+0  00000-0 0  9999
2 66818  50.0000  96.0000 0000000   0.0000  96.0000 15.90815258    11
CTC1_L_00002009-02
1 66819U 25930XA  26037.47800926  .00000000  00000+0  00000-0 0  9992
2 66819  50.0000  96.0000 0000000   0.0000 186.0000 15.90815258    12
CTC1_L_00002009-03
1 66820U 22824LH  26037.47800926  .00000000  00000+0  00000-0 0  9993
2 66820  50.0000  96.0000 0000000   0.0000 276.0000 15.90815258    14
CTC1_L_00002009-04
1 66821U 26882J   26037.47800926  .00000000  00000+0  00000-0 0  9992
2 66821  50.0000  96.0000 0000000   0.0000   6.0000 15.90815258    16
CTC1_L_00002010-01
1 66822U 25920Y   26037.47800926  .00000000  00000+0  00000-0 0  9995
2 66822  50.0000 108.0000 0000000   0.0000 108.0000 15.90815258    14
CTC1_L_00002010-02
1 66823U 24471SL  26037.47800926  .00000000  00000+0  00000-0 0  9996
2 66823  50.0000 108.0000 0000000   0.0000 198.0000 15.90815258    14
CTC1_L_00002010-03
1 66824U 23630TL  26037.47800926  .00000000  00000+0  00000-0 0  9993
2 66824  50.0000 108.0000 0000000   0.0000 288.0000 15.90815258    15
CTC1_L_00002010-04
1 66825U 25849YT  26037.47800926  .00000000  00000+0  00000-0 0  9998
2 66825  50.0000 108.0000 0000000   0.0000  18.0000 15.90815258    17
CTC1_L_00002011-01
1 66826U 23901GS  26037.47800926  .00000000  00000+0  00000-0 0  9996
2 66826  50.0000 120.0000 0000000   0.0000 120.0000 15.90815258    16
CTC1_L_00002011-02
1 66827U 26615VU  26037.47800926  .00000000  00000+0  00000-0 0  9992
2 66827  50.0000 120.0000 0000000   0.0000 210.0000 15.90815258    17
CTC1_L_00002011-03
1 66828U 23481XY  26037.47800926  .00000000  00000+0  00000-0 0  9991
2 66828  50.0000 120.0000 0000000   0.0000 300.0000 15.90815258    18
CTC1_L_00002011-04
1 66829U 25881ZP  26037.47800926  .00000000  00000+0  00000-0 0  9998
2 66829  50.0000 120.0000 0000000   0.0000  30.0000 15.90815258    19
CTC1_L_00002012-01
1 66830U 26362CO  26037.47800926  .00000000  00000+0  00000-0 0  9995
2 66830  50.0000 132.0000 0000000   0.0000 132.0000 15.90815258    17
CTC1_L_00002012-02
1 66831U 25099PX  26037.47800926  .00000000  00000+0  00000-0 0  9992
2 66831  50.0000 132.0000 0000000   0.0000 222.0000 15.90815258    18
CTC1_L_00002012-03
1 66832U 25030BZ  26037.47800926  .00000000  00000+0  00000-0 0  9998
2 66832  50.0000 132.0000 0000000   0.0000 312.0000 15.90815258    19
CTC1_L_00002012-04
1 66833U 24583JM  26037.47800926  .00000000  00000+0  00000-0 0  9991
2 66833  50.0000 132.0000 0000000   0.0000  42.0000 15.90815258    10
CTC1_L_00002013-01
1 66834U 22468IF  26037.47800926  .00000000  00000+0  00000-0 0  9992
2 66834  50.0000 144.0000 0000000   0.0000 144.0000 15.90815258    17
CTC1_L_00002013-02
1 66835U 26051NA  26037.47800926  .00000000  00000+0  00000-0 0  9995
2 66835  50.0000 144.0000 0000000   0.0000 234.0000 15.90815258    18
CTC1_L_00002013-03
1 66836U 22854EG  26037.47800926  .00000000  00000+0  00000-0 0  9993
2 66836  50.0000 144.0000 0000000   0.0000 324.0000 15.90815258    19
CTC1_L_00002013-04
1 66837U 24321MR  26037.47800926  .00000000  00000+0  00000-0 0  9995
2 66837  50.0000 144.0000 0000000   0.0000  54.0000 15.90815258    10
CTC1_L_00002014-01
1 66838U 22600WB  26037.47800926  .00000000  00000+0  00000-0 0  9994
2 66838  50.0000 156.0000 0000000   0.0000 156.0000 15.90815258    17
CTC1_L_00002014-02
1 66839U 24024MH  26037.47800926  .00000000  00000+0  00000-0 0  9997
2 66839  50.0000 156.0000 0000000   0.0000 246.0000 15.90815258    18
CTC1_L_00002014-03
1 66840U 26679SS  26037.47800926  .00000000  00000+0  00000-0 0  9997
2 66840  50.0000 156.0000 0000000   0.0000 336.0000 15.90815258    10
CTC1_L_00002014-04
1 66841U 22520NM  26037.47800926  .00000000  00000+0  00000-0 0  9999
2 66841  50.0000 156.0000 0000000   0.0000  66.0000 15.90815258    11
CTC1_L_00002015-01
1 66842U 26072TJ  26037.47800926  .00000000  00000+0  00000-0 0  9996
2 66842  50.0000 168.0000 0000000   0.0000 168.0000 15.90815258    18
CTC1_L_00002015-02
1 66843U 26992ES  26037.47800926  .00000000  00000+0  00000-0 0  9998
2 66843  50.0000 168.0000 0000000   0.0000 258.0000 15.90815258    19
CTC1_L_00002015-03
1 66844U 22146LR  26037.47800926  .00000000  00000+0  00000-0 0  9996
2 66844  50.0000 168.0000 0000000   0.0000 348.0000 15.90815258    10
CTC1_L_00002015-04
1 66845U 22876AH  26037.47800926  .00000000  00000+0  00000-0 0  9997
2 66845  50.0000 168.0000 0000000   0.0000  78.0000 15.90815258    11
CTC1_L_00002016-01
1 66846U 23185GD  26037.47800926  .00000000  00000+0  00000-0 0  9992
2 66846  50.0000 180.0000 0000000   0.0000 180.0000 15.90815258    10
CTC1_L_00002016-02
1 66847U 22892PK  26037.47800926  .00000000  00000+0  00000-0 0  9997
2 66847  50.0000 180.0000 0000000   0.0000 270.0000 15.90815258    11
